CCSDS_OMM_VERS = 2.0
CREATION_DATE  = 
ORIGINATOR     = 

OBJECT_NAME    = UNKNOWN
OBJECT_ID      = 
CENTER_NAME    = EARTH
REF_FRAME      = TEME
TIME_SYSTEM    = UTC
MEAN_ELEMENT_THEORY = SGP/SGP4

EPOCH          = 2026-02-16T17:39:06.807744
MEAN_MOTION    = 11.29162853
ECCENTRICITY   = .0178136
INCLINATION    = 65.1038
RA_OF_ASC_NODE = 312.4892
ARG_OF_PERICENTER = 322.2986
MEAN_ANOMALY   = 65.4853

EPHEMERIS_TYPE = 0
CLASSIFICATION_TYPE = U
NORAD_CAT_ID   = 82829
ELEMENT_SET_NO = 999
REV_AT_EPOCH   = 49353
BSTAR          = .62868E-2
MEAN_MOTION_DOT = .186E-5
MEAN_MOTION_DDOT = 0

CCSDS_OMM_VERS = 2.0
CREATION_DATE  = 
ORIGINATOR     = 

OBJECT_NAME    = UNKNOWN
OBJECT_ID      = 
CENTER_NAME    = EARTH
REF_FRAME      = TEME
TIME_SYSTEM    = UTC
MEAN_ELEMENT_THEORY = SGP/SGP4

EPOCH          = 2026-02-22T12:33:47.302560
MEAN_MOTION    = 14.25025181
ECCENTRICITY   = .0039712
INCLINATION    = 99.9941
RA_OF_ASC_NODE = 322.5434
ARG_OF_PERICENTER = 81.4823
MEAN_ANOMALY   = 279.0849

EPHEMERIS_TYPE = 0
CLASSIFICATION_TYPE = U
NORAD_CAT_ID   = 82873
ELEMENT_SET_NO = 999
REV_AT_EPOCH   = 63145
BSTAR          = .14981E-2
MEAN_MOTION_DOT = .3484E-4
MEAN_MOTION_DDOT = 0

CCSDS_OMM_VERS = 2.0
CREATION_DATE  = 
ORIGINATOR     = 

OBJECT_NAME    = UNKNOWN
OBJECT_ID      = 
CENTER_NAME    = EARTH
REF_FRAME      = TEME
TIME_SYSTEM    = UTC
MEAN_ELEMENT_THEORY = SGP/SGP4

EPOCH          = 2026-02-21T17:49:31.795968
MEAN_MOTION    = 14.15262019
ECCENTRICITY   = .0379457
INCLINATION    = 98.6843
RA_OF_ASC_NODE = 39.3736
ARG_OF_PERICENTER = 79.2474
MEAN_ANOMALY   = 285.1173

EPHEMERIS_TYPE = 0
CLASSIFICATION_TYPE = U
NORAD_CAT_ID   = 82875
ELEMENT_SET_NO = 999
REV_AT_EPOCH   = 55451
BSTAR          = .16746E-3
MEAN_MOTION_DOT = .606E-5
MEAN_MOTION_DDOT = 0

CCSDS_OMM_VERS = 2.0
CREATION_DATE  = 
ORIGINATOR     = 

OBJECT_NAME    = UNKNOWN
OBJECT_ID      = 
CENTER_NAME    = EARTH
REF_FRAME      = TEME
TIME_SYSTEM    = UTC
MEAN_ELEMENT_THEORY = SGP/SGP4

EPOCH          = 2026-02-27T19:05:35.367072
MEAN_MOTION    = 14.33111946
ECCENTRICITY   = .0027905
INCLINATION    = 98.9591
RA_OF_ASC_NODE = 181.4443
ARG_OF_PERICENTER = 179.3466
MEAN_ANOMALY   = 180.7758

EPHEMERIS_TYPE = 0
CLASSIFICATION_TYPE = U
NORAD_CAT_ID   = 82893
ELEMENT_SET_NO = 999
REV_AT_EPOCH   = 43500
BSTAR          = .29892E-2
MEAN_MOTION_DOT = .8197E-4
MEAN_MOTION_DDOT = 0

CCSDS_OMM_VERS = 2.0
CREATION_DATE  = 
ORIGINATOR     = 

OBJECT_NAME    = UNKNOWN
OBJECT_ID      = 
CENTER_NAME    = EARTH
REF_FRAME      = TEME
TIME_SYSTEM    = UTC
MEAN_ELEMENT_THEORY = SGP/SGP4

EPOCH          = 2026-02-28T05:18:50.697504
MEAN_MOTION    = 13.28366017
ECCENTRICITY   = .0771256
INCLINATION    = 65.8371
RA_OF_ASC_NODE = 355.6186
ARG_OF_PERICENTER = 233.7766
MEAN_ANOMALY   = 118.9593

EPHEMERIS_TYPE = 0
CLASSIFICATION_TYPE = U
NORAD_CAT_ID   = 82912
ELEMENT_SET_NO = 999
REV_AT_EPOCH   = 58961
BSTAR          = .6099E-3
MEAN_MOTION_DOT = .1413E-4
MEAN_MOTION_DDOT = 0

CCSDS_OMM_VERS = 2.0
CREATION_DATE  = 
ORIGINATOR     = 

OBJECT_NAME    = UNKNOWN
OBJECT_ID      = 
CENTER_NAME    = EARTH
REF_FRAME      = TEME
TIME_SYSTEM    = UTC
MEAN_ELEMENT_THEORY = SGP/SGP4

EPOCH          = 2026-02-27T21:16:16.736448
MEAN_MOTION    = 13.25733470
ECCENTRICITY   = .0429617
INCLINATION    = 99.8240
RA_OF_ASC_NODE = 214.4334
ARG_OF_PERICENTER = 185.2290
MEAN_ANOMALY   = 174.4265

EPHEMERIS_TYPE = 0
CLASSIFICATION_TYPE = U
NORAD_CAT_ID   = 82961
ELEMENT_SET_NO = 999
REV_AT_EPOCH   = 56592
BSTAR          = .21412E-1
MEAN_MOTION_DOT = .1541E-3
MEAN_MOTION_DDOT = 0

CCSDS_OMM_VERS = 2.0
CREATION_DATE  = 
ORIGINATOR     = 

OBJECT_NAME    = UNKNOWN
OBJECT_ID      = 
CENTER_NAME    = EARTH
REF_FRAME      = TEME
TIME_SYSTEM    = UTC
MEAN_ELEMENT_THEORY = SGP/SGP4

EPOCH          = 2026-02-28T01:42:16.769952
MEAN_MOTION    = 13.60198576
ECCENTRICITY   = .0003131
INCLINATION    = 100.1087
RA_OF_ASC_NODE = 146.0991
ARG_OF_PERICENTER = 186.2892
MEAN_ANOMALY   = 173.8208

EPHEMERIS_TYPE = 0
CLASSIFICATION_TYPE = U
NORAD_CAT_ID   = 82965
ELEMENT_SET_NO = 999
REV_AT_EPOCH   = 53496
BSTAR          = .13913E-2
MEAN_MOTION_DOT = .994E-5
MEAN_MOTION_DDOT = 0

CCSDS_OMM_VERS = 2.0
CREATION_DATE  = 
ORIGINATOR     = 

OBJECT_NAME    = UNKNOWN
OBJECT_ID      = 
CENTER_NAME    = EARTH
REF_FRAME      = TEME
TIME_SYSTEM    = UTC
MEAN_ELEMENT_THEORY = SGP/SGP4

EPOCH          = 2026-02-28T13:08:08.045376
MEAN_MOTION    = 0.99116792
ECCENTRICITY   = .0122258
INCLINATION    = 5.9928
RA_OF_ASC_NODE = 289.9326
ARG_OF_PERICENTER = 253.6025
MEAN_ANOMALY   = 310.5756

EPHEMERIS_TYPE = 0
CLASSIFICATION_TYPE = U
NORAD_CAT_ID   = 83903
ELEMENT_SET_NO = 999
REV_AT_EPOCH   = 4443
BSTAR          = 0
MEAN_MOTION_DOT = -.401E-5
MEAN_MOTION_DDOT = 0

CCSDS_OMM_VERS = 2.0
CREATION_DATE  = 
ORIGINATOR     = 

OBJECT_NAME    = UNKNOWN
OBJECT_ID      = 
CENTER_NAME    = EARTH
REF_FRAME      = TEME
TIME_SYSTEM    = UTC
MEAN_ELEMENT_THEORY = SGP/SGP4

EPOCH          = 2026-02-27T22:45:34.017696
MEAN_MOTION    = 1.02661092
ECCENTRICITY   = .0224674
INCLINATION    = 5.6095
RA_OF_ASC_NODE = 297.0036
ARG_OF_PERICENTER = 275.7237
MEAN_ANOMALY   = 282.1708

EPHEMERIS_TYPE = 0
CLASSIFICATION_TYPE = U
NORAD_CAT_ID   = 83934
ELEMENT_SET_NO = 999
REV_AT_EPOCH   = 4607
BSTAR          = 0
MEAN_MOTION_DOT = -.6E-7
MEAN_MOTION_DDOT = 0

CCSDS_OMM_VERS = 2.0
CREATION_DATE  = 
ORIGINATOR     = 

OBJECT_NAME    = UNKNOWN
OBJECT_ID      = 
CENTER_NAME    = EARTH
REF_FRAME      = TEME
TIME_SYSTEM    = UTC
MEAN_ELEMENT_THEORY = SGP/SGP4

EPOCH          = 2026-02-26T11:28:58.920672
MEAN_MOTION    = 2.16232571
ECCENTRICITY   = .6163628
INCLINATION    = 22.3791
RA_OF_ASC_NODE = 162.0417
ARG_OF_PERICENTER = 87.2630
MEAN_ANOMALY   = 337.0722

EPHEMERIS_TYPE = 0
CLASSIFICATION_TYPE = U
NORAD_CAT_ID   = 84006
ELEMENT_SET_NO = 999
REV_AT_EPOCH   = 8586
BSTAR          = 0
MEAN_MOTION_DOT = .51E-6
MEAN_MOTION_DDOT = 0

CCSDS_OMM_VERS = 2.0
CREATION_DATE  = 
ORIGINATOR     = 

OBJECT_NAME    = UNKNOWN
OBJECT_ID      = 
CENTER_NAME    = EARTH
REF_FRAME      = TEME
TIME_SYSTEM    = UTC
MEAN_ELEMENT_THEORY = SGP/SGP4

EPOCH          = 2026-02-28T08:50:42.025344
MEAN_MOTION    = 8.02274987
ECCENTRICITY   = .352254
INCLINATION    = 64.8753
RA_OF_ASC_NODE = 187.2219
ARG_OF_PERICENTER = 9.6794
MEAN_ANOMALY   = 355.6895

EPHEMERIS_TYPE = 0
CLASSIFICATION_TYPE = U
NORAD_CAT_ID   = 84188
ELEMENT_SET_NO = 999
REV_AT_EPOCH   = 4735
BSTAR          = .81609E-1
MEAN_MOTION_DOT = .160076E-2
MEAN_MOTION_DDOT = 0

